{"fetched_at":"2026-03-29T16:36:15Z","count":15609,"tles":[{"name":"STARLINK-3983","line1":"1 52618U 22052W   26087.69338525  .00000722  00000+0  63436-4 0  9993","line2":"2 52618  53.2170 183.8092 0001189  85.8455 274.2673 15.08838195213855","category":"Starlink"}]}