{
  "norad_id": 52618,
  "name": "STARLINK-3983",
  "history": [
    {
      "epoch": "2026-03-28T16:38:28.485600",
      "apogee_km": 540.5719270187546,
      "perigee_km": 538.925885246249,
      "latitude_deg": -47.870665680546836,
      "longitude_deg": -131.63501599989831,
      "semi_major_axis_km": 6917.885906132502,
      "eccentricity": 0.00011897,
      "inclination_deg": 53.217,
      "raan_deg": 183.8092,
      "arg_perigee_deg": 85.8455,
      "mean_anomaly_deg": 274.2673,
      "mean_motion_rev_day": 15.08838195
    }
  ]
}